{
  "type": "FeatureCollection",
  "features": [
    {
      "type": "Feature",
      "properties": {
        "norad_id": 43648,
        "name": "BEIDOU-3 M15 (C34)",
        "group": "gnss",
        "lat": -52.38362548730188,
        "lon": -122.26253640746094,
        "alt_km": 21534.409634784388,
        "timestamp": "2025-12-04T15:47:54.340775+00:00",
        "meta_object_name": "BEIDOU-3 M15 (C34)",
        "meta_object_id": "2018-078B",
        "meta_epoch": "2025-12-01T00:21:40.976640",
        "meta_mean_motion": 1.86232,
        "meta_eccentricity": 0.0003569,
        "meta_inclination": 54.2686,
        "meta_ra_of_asc_node": 306.9322,
        "meta_arg_of_pericenter": 17.0419,
        "meta_mean_anomaly": 342.9634,
        "meta_ephemeris_type": 0,
        "meta_classification_type": "U",
        "meta_norad_cat_id": 43648,
        "meta_element_set_no": 999,
        "meta_rev_at_epoch": 4848,
        "meta_bstar": 0,
        "meta_mean_motion_dot": -5.6e-07,
        "meta_mean_motion_ddot": 0,
        "tle_line1": "1 43648U 18078B   25335.01505760 -.00000056  00000+0  00000+0 0  9991",
        "tle_line2": "2 43648  54.2686 306.9322 0003569  17.0419 342.9634  1.86232000 48485"
      },
      "geometry": {
        "type": "Point",
        "coordinates": [
          -122.26253640746094,
          -52.38362548730188
        ]
      }
    },
    {
      "type": "Feature",
      "properties": {
        "norad_id": 43683,
        "name": "BEIDOU-3 G1 (C59)",
        "group": "gnss",
        "lat": -0.5350945224233755,
        "lon": 90.72409857792864,
        "alt_km": 35783.85150288409,
        "timestamp": "2025-12-04T15:47:54.340789+00:00",
        "meta_object_name": "BEIDOU-3 G1 (C59)",
        "meta_object_id": "2018-085A",
        "meta_epoch": "2025-12-04T07:32:36.708000",
        "meta_mean_motion": 1.00273332,
        "meta_eccentricity": 0.000201,
        "meta_inclination": 2.585,
        "meta_ra_of_asc_node": 103.2138,
        "meta_arg_of_pericenter": 64.3328,
        "meta_mean_anomaly": 159.0407,
        "meta_ephemeris_type": 0,
        "meta_classification_type": "U",
        "meta_norad_cat_id": 43683,
        "meta_element_set_no": 999,
        "meta_rev_at_epoch": 2610,
        "meta_bstar": 0,
        "meta_mean_motion_dot": -2.62e-06,
        "meta_mean_motion_ddot": 0,
        "tle_line1": "1 43683U 18085A   25338.31431375 -.00000262  00000+0  00000+0 0  9993",
        "tle_line2": "2 43683   2.5850 103.2138 0002010  64.3328 159.0407  1.00273332 26109"
      },
      "geometry": {
        "type": "Point",
        "coordinates": [
          90.72409857792864,
          -0.5350945224233755
        ]
      }
    },
    {
      "type": "Feature",
      "properties": {
        "norad_id": 43687,
        "name": "COSMOS 2529 (757)",
        "group": "gnss",
        "lat": 10.52780427228282,
        "lon": 14.029079533750089,
        "alt_km": 19127.780932660902,
        "timestamp": "2025-12-04T15:47:54.340800+00:00",
        "meta_object_name": "COSMOS 2529 (757)",
        "meta_object_id": "2018-086A",
        "meta_epoch": "2025-12-03T00:44:36.468960",
        "meta_mean_motion": 2.13101888,
        "meta_eccentricity": 0.00072932,
        "meta_inclination": 64.2917,
        "meta_ra_of_asc_node": 199.2166,
        "meta_arg_of_pericenter": 254.4618,
        "meta_mean_anomaly": 105.5545,
        "meta_ephemeris_type": 0,
        "meta_classification_type": "U",
        "meta_norad_cat_id": 43687,
        "meta_element_set_no": 999,
        "meta_rev_at_epoch": 5510,
        "meta_bstar": 0,
        "meta_mean_motion_dot": 1.06e-06,
        "meta_mean_motion_ddot": 0,
        "tle_line1": "1 43687U 18086A   25337.03097765  .00000106  00000+0  00000+0 0  9993",
        "tle_line2": "2 43687  64.2917 199.2166 0007293 254.4618 105.5545  2.13101888 55102"
      },
      "geometry": {
        "type": "Point",
        "coordinates": [
          14.029079533750089,
          10.52780427228282
        ]
      }
    },
    {
      "type": "Feature",
      "properties": {
        "norad_id": 43706,
        "name": "BEIDOU-3 M17 (C36)",
        "group": "gnss",
        "lat": 2.9948016615206354,
        "lon": 6.739278919716356,
        "alt_km": 21539.578905230588,
        "timestamp": "2025-12-04T15:47:54.340811+00:00",
        "meta_object_name": "BEIDOU-3 M17 (C36)",
        "meta_object_id": "2018-093A",
        "meta_epoch": "2025-12-03T14:10:37.280064",
        "meta_mean_motion": 1.86228161,
        "meta_eccentricity": 0.00063465,
        "meta_inclination": 54.1727,
        "meta_ra_of_asc_node": 188.9327,
        "meta_arg_of_pericenter": 306.3477,
        "meta_mean_anomaly": 234.3147,
        "meta_ephemeris_type": 0,
        "meta_classification_type": "U",
        "meta_norad_cat_id": 43706,
        "meta_element_set_no": 999,
        "meta_rev_at_epoch": 4789,
        "meta_bstar": 0,
        "meta_mean_motion_dot": 1.14e-06,
        "meta_mean_motion_ddot": 0,
        "tle_line1": "1 43706U 18093A   25337.59070926  .00000114  00000+0  00000+0 0  9993",
        "tle_line2": "2 43706  54.1727 188.9327 0006346 306.3477 234.3147  1.86228161 47892"
      },
      "geometry": {
        "type": "Point",
        "coordinates": [
          6.739278919716356,
          2.9948016615206354
        ]
      }
    },
    {
      "type": "Feature",
      "properties": {
        "norad_id": 43707,
        "name": "BEIDOU-3 M18 (C37)",
        "group": "gnss",
        "lat": -54.143857715943795,
        "lon": 97.53982817068784,
        "alt_km": 21531.872321778017,
        "timestamp": "2025-12-04T15:47:54.340822+00:00",
        "meta_object_name": "BEIDOU-3 M18 (C37)",
        "meta_object_id": "2018-093B",
        "meta_epoch": "2025-12-03T17:16:21.121824",
        "meta_mean_motion": 1.86226418,
        "meta_eccentricity": 0.00063643,
        "meta_inclination": 54.1733,
        "meta_ra_of_asc_node": 188.9202,
        "meta_arg_of_pericenter": 351.2159,
        "meta_mean_anomaly": 8.8675,
        "meta_ephemeris_type": 0,
        "meta_classification_type": "U",
        "meta_norad_cat_id": 43707,
        "meta_element_set_no": 999,
        "meta_rev_at_epoch": 4789,
        "meta_bstar": 0,
        "meta_mean_motion_dot": 1.13e-06,
        "meta_mean_motion_ddot": 0,
        "tle_line1": "1 43707U 18093B   25337.71968891  .00000113  00000+0  00000+0 0  9994",
        "tle_line2": "2 43707  54.1733 188.9202 0006364 351.2159   8.8675  1.86226418 47891"
      },
      "geometry": {
        "type": "Point",
        "coordinates": [
          97.53982817068784,
          -54.143857715943795
        ]
      }
    },
    {
      "type": "Feature",
      "properties": {
        "norad_id": 43873,
        "name": "GPS BIII-1  (PRN 04)",
        "group": "gnss",
        "lat": 49.97314887588523,
        "lon": 154.55700867613947,
        "alt_km": 20235.45100725238,
        "timestamp": "2025-12-04T15:47:54.340835+00:00",
        "meta_object_name": "GPS BIII-1  (PRN 04)",
        "meta_object_id": "2018-109A",
        "meta_epoch": "2025-12-02T13:53:48.865056",
        "meta_mean_motion": 2.00553145,
        "meta_eccentricity": 0.00371805,
        "meta_inclination": 55.5613,
        "meta_ra_of_asc_node": 99.9484,
        "meta_arg_of_pericenter": 194.5324,
        "meta_mean_anomaly": 172.7169,
        "meta_ephemeris_type": 0,
        "meta_classification_type": "U",
        "meta_norad_cat_id": 43873,
        "meta_element_set_no": 999,
        "meta_rev_at_epoch": 5113,
        "meta_bstar": 0,
        "meta_mean_motion_dot": 1e-07,
        "meta_mean_motion_ddot": 0,
        "tle_line1": "1 43873U 18109A   25336.57903779  .00000010  00000+0  00000+0 0  9999",
        "tle_line2": "2 43873  55.5613  99.9484 0037180 194.5324 172.7169  2.00553145 51130"
      },
      "geometry": {
        "type": "Point",
        "coordinates": [
          154.55700867613947,
          49.97314887588523
        ]
      }
    },
    {
      "type": "Feature",
      "properties": {
        "norad_id": 44204,
        "name": "BEIDOU-3 IGSO-1 (C38)",
        "group": "gnss",
        "lat": 21.1111170172171,
        "lon": 53.411094100877044,
        "alt_km": 35900.44380554671,
        "timestamp": "2025-12-04T15:47:54.340847+00:00",
        "meta_object_name": "BEIDOU-3 IGSO-1 (C38)",
        "meta_object_id": "2019-023A",
        "meta_epoch": "2025-11-19T14:15:02.708640",
        "meta_mean_motion": 1.00252177,
        "meta_eccentricity": 0.0026966,
        "meta_inclination": 58.4003,
        "meta_ra_of_asc_node": 39.8168,
        "meta_arg_of_pericenter": 221.2202,
        "meta_mean_anomaly": 126.9723,
        "meta_ephemeris_type": 0,
        "meta_classification_type": "U",
        "meta_norad_cat_id": 44204,
        "meta_element_set_no": 999,
        "meta_rev_at_epoch": 510,
        "meta_bstar": 0,
        "meta_mean_motion_dot": -2.26e-06,
        "meta_mean_motion_ddot": 0,
        "tle_line1": "1 44204U 19023A   25323.59378135 -.00000226  00000+0  00000+0 0  9994",
        "tle_line2": "2 44204  58.4003  39.8168 0026966 221.2202 126.9723  1.00252177  5102"
      },
      "geometry": {
        "type": "Point",
        "coordinates": [
          53.411094100877044,
          21.1111170172171
        ]
      }
    }
  ]
}